[
  {
    "OBJECT_NAME": "STARLINK-34391",
    "OBJECT_ID": "25123H",
    "EPOCH": "2025-11-10T19:01:06.291552",
    "MEAN_MOTION": 14.98349262,
    "ECCENTRICITY": 0.0003586,
    "INCLINATION": 70.0006,
    "RA_OF_ASC_NODE": 134.0457,
    "ARG_OF_PERICENTER": 266.4615,
    "MEAN_ANOMALY": 93.6134,
    "EPHEMERIS_TYPE": 0,
    "CLASSIFICATION_TYPE": "U",
    "NORAD_CAT_ID": 64298,
    "ELEMENT_SET_NO": 999,
    "REV_AT_EPOCH": 2381,
    "BSTAR": 0.00076176,
    "MEAN_MOTION_DOT": 9.013e-05,
    "MEAN_MOTION_DDOT": 0.0,
    "TLE_LINE1": "1 64298U 25123H   25314.79243393  .00009013  00000+0  76176-3 0  9999",
    "TLE_LINE2": "2 64298  70.0006 134.0457 0003586 266.4615  93.6134 14.98349262 23818",
    "COMMENT": "Grouped by shell and plane from TLE"
  },
  {
    "OBJECT_NAME": "STARLINK-34378",
    "OBJECT_ID": "25123J",
    "EPOCH": "2025-11-11T05:20:12.694560",
    "MEAN_MOTION": 14.98335601,
    "ECCENTRICITY": 0.0002851,
    "INCLINATION": 69.9996,
    "RA_OF_ASC_NODE": 133.1437,
    "ARG_OF_PERICENTER": 270.4717,
    "MEAN_ANOMALY": 89.6115,
    "EPHEMERIS_TYPE": 0,
    "CLASSIFICATION_TYPE": "U",
    "NORAD_CAT_ID": 64299,
    "ELEMENT_SET_NO": 999,
    "REV_AT_EPOCH": 2387,
    "BSTAR": 0.0006008200000000001,
    "MEAN_MOTION_DOT": 7.084e-05,
    "MEAN_MOTION_DDOT": 0.0,
    "TLE_LINE1": "1 64299U 25123J   25315.22236915  .00007084  00000+0  60082-3 0  9996",
    "TLE_LINE2": "2 64299  69.9996 133.1437 0002851 270.4717  89.6115 14.98335601 23876",
    "COMMENT": "Grouped by shell and plane from TLE"
  },
  {
    "OBJECT_NAME": "STARLINK-34376",
    "OBJECT_ID": "25123K",
    "EPOCH": "2025-11-11T05:56:01.673376",
    "MEAN_MOTION": 14.98341204,
    "ECCENTRICITY": 0.0002651,
    "INCLINATION": 70.0019,
    "RA_OF_ASC_NODE": 133.2294,
    "ARG_OF_PERICENTER": 272.4741,
    "MEAN_ANOMALY": 87.6114,
    "EPHEMERIS_TYPE": 0,
    "CLASSIFICATION_TYPE": "U",
    "NORAD_CAT_ID": 64300,
    "ELEMENT_SET_NO": 999,
    "REV_AT_EPOCH": 2387,
    "BSTAR": 0.00040981000000000004,
    "MEAN_MOTION_DOT": 4.802e-05,
    "MEAN_MOTION_DDOT": 0.0,
    "TLE_LINE1": "1 64300U 25123K   25315.24724159  .00004802  00000+0  40981-3 0  9994",
    "TLE_LINE2": "2 64300  70.0019 133.2294 0002651 272.4741  87.6114 14.98341204 23870",
    "COMMENT": "Grouped by shell and plane from TLE"
  },
  {
    "OBJECT_NAME": "STARLINK-34372",
    "OBJECT_ID": "25123L",
    "EPOCH": "2025-11-11T05:32:00.269088",
    "MEAN_MOTION": 14.98335811,
    "ECCENTRICITY": 0.0003069,
    "INCLINATION": 70.0059,
    "RA_OF_ASC_NODE": 133.1709,
    "ARG_OF_PERICENTER": 267.6749,
    "MEAN_ANOMALY": 92.4059,
    "EPHEMERIS_TYPE": 0,
    "CLASSIFICATION_TYPE": "U",
    "NORAD_CAT_ID": 64301,
    "ELEMENT_SET_NO": 999,
    "REV_AT_EPOCH": 2387,
    "BSTAR": 0.0011516,
    "MEAN_MOTION_DOT": 0.00013677,
    "MEAN_MOTION_DDOT": 0.0,
    "TLE_LINE1": "1 64301U 25123L   25315.23055867  .00013677  00000+0  11516-2 0  9998",
    "TLE_LINE2": "2 64301  70.0059 133.1709 0003069 267.6749  92.4059 14.98335811 23872",
    "COMMENT": "Grouped by shell and plane from TLE"
  },
  {
    "OBJECT_NAME": "STARLINK-34356",
    "OBJECT_ID": "25123N",
    "EPOCH": "2025-11-10T19:07:05.421792",
    "MEAN_MOTION": 14.98343132,
    "ECCENTRICITY": 0.0002838,
    "INCLINATION": 69.9998,
    "RA_OF_ASC_NODE": 134.0618,
    "ARG_OF_PERICENTER": 271.059,
    "MEAN_ANOMALY": 89.0244,
    "EPHEMERIS_TYPE": 0,
    "CLASSIFICATION_TYPE": "U",
    "NORAD_CAT_ID": 64303,
    "ELEMENT_SET_NO": 999,
    "REV_AT_EPOCH": 2381,
    "BSTAR": 0.00047429,
    "MEAN_MOTION_DOT": 5.572e-05,
    "MEAN_MOTION_DDOT": 0.0,
    "TLE_LINE1": "1 64303U 25123N   25314.79659053  .00005572  00000+0  47429-3 0  9995",
    "TLE_LINE2": "2 64303  69.9998 134.0618 0002838 271.0590  89.0244 14.98343132 23815",
    "COMMENT": "Grouped by shell and plane from TLE"
  },
  {
    "OBJECT_NAME": "STARLINK-34360",
    "OBJECT_ID": "25123P",
    "EPOCH": "2025-11-11T05:50:14.410176",
    "MEAN_MOTION": 14.98422212,
    "ECCENTRICITY": 0.0004542,
    "INCLINATION": 70.0035,
    "RA_OF_ASC_NODE": 133.2096,
    "ARG_OF_PERICENTER": 263.9205,
    "MEAN_ANOMALY": 96.1436,
    "EPHEMERIS_TYPE": 0,
    "CLASSIFICATION_TYPE": "U",
    "NORAD_CAT_ID": 64304,
    "ELEMENT_SET_NO": 999,
    "REV_AT_EPOCH": 2387,
    "BSTAR": 0.0030164999999999997,
    "MEAN_MOTION_DOT": 0.00036175,
    "MEAN_MOTION_DDOT": 0.0,
    "TLE_LINE1": "1 64304U 25123P   25315.24322234  .00036175  00000+0  30165-2 0  9996",
    "TLE_LINE2": "2 64304  70.0035 133.2096 0004542 263.9205  96.1436 14.98422212 23874",
    "COMMENT": "Grouped by shell and plane from TLE"
  },
  {
    "OBJECT_NAME": "STARLINK-34383",
    "OBJECT_ID": "25123Q",
    "EPOCH": "2025-11-10T19:01:21.465984",
    "MEAN_MOTION": 14.98342156,
    "ECCENTRICITY": 0.0002895,
    "INCLINATION": 70.0003,
    "RA_OF_ASC_NODE": 134.4428,
    "ARG_OF_PERICENTER": 271.377,
    "MEAN_ANOMALY": 88.7057,
    "EPHEMERIS_TYPE": 0,
    "CLASSIFICATION_TYPE": "U",
    "NORAD_CAT_ID": 64305,
    "ELEMENT_SET_NO": 999,
    "REV_AT_EPOCH": 2380,
    "BSTAR": 0.00057699,
    "MEAN_MOTION_DOT": 6.8e-05,
    "MEAN_MOTION_DDOT": 0.0,
    "TLE_LINE1": "1 64305U 25123Q   25314.79260956  .00006800  00000+0  57699-3 0  9992",
    "TLE_LINE2": "2 64305  70.0003 134.4428 0002895 271.3770  88.7057 14.98342156 23808",
    "COMMENT": "Grouped by shell and plane from TLE"
  },
  {
    "OBJECT_NAME": "STARLINK-34355",
    "OBJECT_ID": "25123R",
    "EPOCH": "2025-11-10T18:55:20.830656",
    "MEAN_MOTION": 14.98340382,
    "ECCENTRICITY": 0.0002709,
    "INCLINATION": 70.0023,
    "RA_OF_ASC_NODE": 134.4315,
    "ARG_OF_PERICENTER": 270.3697,
    "MEAN_ANOMALY": 89.7152,
    "EPHEMERIS_TYPE": 0,
    "CLASSIFICATION_TYPE": "U",
    "NORAD_CAT_ID": 64306,
    "ELEMENT_SET_NO": 999,
    "REV_AT_EPOCH": 2380,
    "BSTAR": 0.00045461000000000004,
    "MEAN_MOTION_DOT": 5.337e-05,
    "MEAN_MOTION_DDOT": 0.0,
    "TLE_LINE1": "1 64306U 25123R   25314.78843554  .00005337  00000+0  45461-3 0  9991",
    "TLE_LINE2": "2 64306  70.0023 134.4315 0002709 270.3697  89.7152 14.98340382 23803",
    "COMMENT": "Grouped by shell and plane from TLE"
  },
  {
    "OBJECT_NAME": "STARLINK-34380",
    "OBJECT_ID": "25123S",
    "EPOCH": "2025-11-10T22:01:36.393312",
    "MEAN_MOTION": 14.98313728,
    "ECCENTRICITY": 0.0003063,
    "INCLINATION": 69.9985,
    "RA_OF_ASC_NODE": 134.0803,
    "ARG_OF_PERICENTER": 273.5417,
    "MEAN_ANOMALY": 86.5392,
    "EPHEMERIS_TYPE": 0,
    "CLASSIFICATION_TYPE": "U",
    "NORAD_CAT_ID": 64307,
    "ELEMENT_SET_NO": 999,
    "REV_AT_EPOCH": 2382,
    "BSTAR": 0.00075427,
    "MEAN_MOTION_DOT": 8.915e-05,
    "MEAN_MOTION_DDOT": 0.0,
    "TLE_LINE1": "1 64307U 25123S   25314.91778233  .00008915  00000+0  75427-3 0  9998",
    "TLE_LINE2": "2 64307  69.9985 134.0803 0003063 273.5417  86.5392 14.98313728 23822",
    "COMMENT": "Grouped by shell and plane from TLE"
  },
  {
    "OBJECT_NAME": "STARLINK-34374",
    "OBJECT_ID": "25123T",
    "EPOCH": "2025-11-11T05:44:14.726112",
    "MEAN_MOTION": 14.9833781,
    "ECCENTRICITY": 0.0002906,
    "INCLINATION": 69.9996,
    "RA_OF_ASC_NODE": 133.1932,
    "ARG_OF_PERICENTER": 268.4399,
    "MEAN_ANOMALY": 91.6427,
    "EPHEMERIS_TYPE": 0,
    "CLASSIFICATION_TYPE": "U",
    "NORAD_CAT_ID": 64308,
    "ELEMENT_SET_NO": 999,
    "REV_AT_EPOCH": 2387,
    "BSTAR": 0.0005272,
    "MEAN_MOTION_DOT": 6.204e-05,
    "MEAN_MOTION_DDOT": 0.0,
    "TLE_LINE1": "1 64308U 25123T   25315.23905933  .00006204  00000+0  52720-3 0  9994",
    "TLE_LINE2": "2 64308  69.9996 133.1932 0002906 268.4399  91.6427 14.98337810 23874",
    "COMMENT": "Grouped by shell and plane from TLE"
  },
  {
    "OBJECT_NAME": "STARLINK-34370",
    "OBJECT_ID": "25123U",
    "EPOCH": "2025-11-11T05:32:13.418304",
    "MEAN_MOTION": 14.98334958,
    "ECCENTRICITY": 0.0002479,
    "INCLINATION": 69.9995,
    "RA_OF_ASC_NODE": 133.1631,
    "ARG_OF_PERICENTER": 271.3123,
    "MEAN_ANOMALY": 88.7752,
    "EPHEMERIS_TYPE": 0,
    "CLASSIFICATION_TYPE": "U",
    "NORAD_CAT_ID": 64309,
    "ELEMENT_SET_NO": 999,
    "REV_AT_EPOCH": 2387,
    "BSTAR": 0.00044418999999999996,
    "MEAN_MOTION_DOT": 5.212e-05,
    "MEAN_MOTION_DDOT": 0.0,
    "TLE_LINE1": "1 64309U 25123U   25315.23071086  .00005212  00000+0  44419-3 0  9992",
    "TLE_LINE2": "2 64309  69.9995 133.1631 0002479 271.3123  88.7752 14.98334958 23871",
    "COMMENT": "Grouped by shell and plane from TLE"
  },
  {
    "OBJECT_NAME": "STARLINK-34357",
    "OBJECT_ID": "25123V",
    "EPOCH": "2025-11-10T18:49:06.231360",
    "MEAN_MOTION": 14.98346283,
    "ECCENTRICITY": 0.0002575,
    "INCLINATION": 70.0,
    "RA_OF_ASC_NODE": 134.4214,
    "ARG_OF_PERICENTER": 276.5315,
    "MEAN_ANOMALY": 83.5551,
    "EPHEMERIS_TYPE": 0,
    "CLASSIFICATION_TYPE": "U",
    "NORAD_CAT_ID": 64310,
    "ELEMENT_SET_NO": 999,
    "REV_AT_EPOCH": 2380,
    "BSTAR": 0.0006027200000000001,
    "MEAN_MOTION_DOT": 7.109e-05,
    "MEAN_MOTION_DDOT": 0.0,
    "TLE_LINE1": "1 64310U 25123V   25314.78409990  .00007109  00000+0  60272-3 0  9994",
    "TLE_LINE2": "2 64310  70.0000 134.4214 0002575 276.5315  83.5551 14.98346283 23808",
    "COMMENT": "Grouped by shell and plane from TLE"
  },
  {
    "OBJECT_NAME": "STARLINK-34368",
    "OBJECT_ID": "25123W",
    "EPOCH": "2025-11-11T05:50:01.038912",
    "MEAN_MOTION": 14.9834324,
    "ECCENTRICITY": 3.69e-05,
    "INCLINATION": 70.0004,
    "RA_OF_ASC_NODE": 133.2038,
    "ARG_OF_PERICENTER": 325.4579,
    "MEAN_ANOMALY": 34.6556,
    "EPHEMERIS_TYPE": 0,
    "CLASSIFICATION_TYPE": "U",
    "NORAD_CAT_ID": 64311,
    "ELEMENT_SET_NO": 999,
    "REV_AT_EPOCH": 2387,
    "BSTAR": 0.00031841000000000004,
    "MEAN_MOTION_DOT": 3.71e-05,
    "MEAN_MOTION_DDOT": 0.0,
    "TLE_LINE1": "1 64311U 25123W   25315.24306758  .00003710  00000+0  31841-3 0  9999",
    "TLE_LINE2": "2 64311  70.0004 133.2038 0000369 325.4579  34.6556 14.98343240 23878",
    "COMMENT": "Grouped by shell and plane from TLE"
  }
]